{
  "norad_id": 65840,
  "name": "STARLINK-35364",
  "history": [
    {
      "epoch": "2026-03-28T18:28:04.587456Z",
      "apogee_km": 475.97390062040904,
      "perigee_km": 474.2662060278617,
      "latitude_deg": -1.1324086154661562e-05,
      "longitude_deg": -103.41721009703647,
      "height_km": 476.229082926333,
      "semi_major_axis_km": 6853.257053324135,
      "eccentricity": 0.00012459,
      "inclination_deg": 53.1602,
      "raan_deg": 359.7871,
      "arg_perigee_deg": 104.2957,
      "mean_anomaly_deg": 255.8182,
      "mean_motion_rev_day": 15.30231823
    },
    {
      "epoch": "2026-03-29T03:52:24.254976Z",
      "apogee_km": 475.93525927743667,
      "perigee_km": 474.5262068715165,
      "latitude_deg": -2.055658889370999e-06,
      "longitude_deg": 113.29498015227557,
      "height_km": 475.8028399766731,
      "semi_major_axis_km": 6853.367733074476,
      "eccentricity": 0.0001028,
      "inclination_deg": 53.1604,
      "raan_deg": 357.9675,
      "arg_perigee_deg": 62.3913,
      "mean_anomaly_deg": 297.7192,
      "mean_motion_rev_day": 15.30194754
    },
    {
      "epoch": "2026-03-30T00:15:05.479776Z",
      "apogee_km": 475.8778096021988,
      "perigee_km": 474.6359746289463,
      "latitude_deg": -2.576040191839139e-06,
      "longitude_deg": 162.8411106344651,
      "height_km": 476.0952085815997,
      "semi_major_axis_km": 6853.393892115572,
      "eccentricity": 9.06e-05,
      "inclination_deg": 53.1603,
      "raan_deg": 354.0223,
      "arg_perigee_deg": 84.4286,
      "mean_anomaly_deg": 275.6818,
      "mean_motion_rev_day": 15.30185993
    },
    {
      "epoch": "2026-03-30T00:15:05.480640Z",
      "apogee_km": 475.8776040003813,
      "perigee_km": 474.6361802307638,
      "latitude_deg": 1.660765700860439e-07,
      "longitude_deg": 162.84110906759074,
      "height_km": 476.09522854414,
      "semi_major_axis_km": 6853.393892115572,
      "eccentricity": 9.057e-05,
      "inclination_deg": 53.1603,
      "raan_deg": 354.0223,
      "arg_perigee_deg": 84.4286,
      "mean_anomaly_deg": 275.6818,
      "mean_motion_rev_day": 15.30185993
    },
    {
      "epoch": "2026-03-30T20:37:47.369856Z",
      "apogee_km": 475.8842452862855,
      "perigee_km": 474.53166912553115,
      "latitude_deg": -4.0129036940876954e-05,
      "longitude_deg": -147.61356551851387,
      "height_km": 476.1590697004314,
      "semi_major_axis_km": 6853.344957205908,
      "eccentricity": 9.868e-05,
      "inclination_deg": 53.1619,
      "raan_deg": 350.0791,
      "arg_perigee_deg": 94.4473,
      "mean_anomaly_deg": 265.664,
      "mean_motion_rev_day": 15.30202382
    },
    {
      "epoch": "2026-03-31T10:44:16.349280Z",
      "apogee_km": 476.00767201862527,
      "perigee_km": 474.39809661339586,
      "latitude_deg": -3.667193580039367e-05,
      "longitude_deg": -2.5445067706661346,
      "height_km": 476.01137970365806,
      "semi_major_axis_km": 6853.33988431601,
      "eccentricity": 0.00011743,
      "inclination_deg": 53.1628,
      "raan_deg": 347.3483,
      "arg_perigee_deg": 83.577,
      "mean_anomaly_deg": 276.5364,
      "mean_motion_rev_day": 15.30204081
    },
    {
      "epoch": "2026-03-31T23:16:42.065184Z",
      "apogee_km": 475.91853626403554,
      "perigee_km": 474.50331991688563,
      "latitude_deg": 6.75098623636378e-05,
      "longitude_deg": 166.40740290216587,
      "height_km": 475.93053620846865,
      "semi_major_axis_km": 6853.34792809046,
      "eccentricity": 0.00010325,
      "inclination_deg": 53.1614,
      "raan_deg": 344.9223,
      "arg_perigee_deg": 75.3488,
      "mean_anomaly_deg": 284.7628,
      "mean_motion_rev_day": 15.30201387
    },
    {
      "epoch": "2026-04-02T09:45:51.826176Z",
      "apogee_km": 475.87719481385557,
      "perigee_km": 474.4267647341767,
      "latitude_deg": 1.586593927603619e-05,
      "longitude_deg": 1.0257036553921646,
      "height_km": 476.0087724668215,
      "semi_major_axis_km": 6853.288979774016,
      "eccentricity": 0.00010582,
      "inclination_deg": 53.1619,
      "raan_deg": 338.2476,
      "arg_perigee_deg": 86.6971,
      "mean_anomaly_deg": 273.4151,
      "mean_motion_rev_day": 15.3022113
    }
  ]
}